{
  "type": "FeatureCollection",
  "features": [
    {
      "type": "Feature",
      "properties": {
        "norad_id": 35065,
        "name": "COSMOS 2251 DEB",
        "group": "cosmos-2251-debris",
        "lat": -67.0227872289831,
        "lon": 62.680772484375595,
        "alt_km": 742.295958141749,
        "timestamp": "2025-12-09T14:52:26.558455+00:00",
        "meta_object_name": "COSMOS 2251 DEB",
        "meta_object_id": "1993-036AHU",
        "meta_epoch": "2025-12-08T21:05:49.871616",
        "meta_mean_motion": 14.4570853,
        "meta_eccentricity": 0.0019714,
        "meta_inclination": 74.0196,
        "meta_ra_of_asc_node": 201.5431,
        "meta_arg_of_pericenter": 327.1177,
        "meta_mean_anomaly": 32.8753,
        "meta_ephemeris_type": 0,
        "meta_classification_type": "U",
        "meta_norad_cat_id": 35065,
        "meta_element_set_no": 999,
        "meta_rev_at_epoch": 68295,
        "meta_bstar": 0.00050947,
        "meta_mean_motion_dot": 1.782e-05,
        "meta_mean_motion_ddot": 0,
        "tle_line1": "1 35065U 93036AHU 25342.87904944  .00001782  00000+0  50947-3 0  9996",
        "tle_line2": "2 35065  74.0196 201.5431 0019714 327.1177  32.8753 14.45708530682959"
      },
      "geometry": {
        "type": "Point",
        "coordinates": [
          62.680772484375595,
          -67.0227872289831
        ]
      }
    },
    {
      "type": "Feature",
      "properties": {
        "norad_id": 35071,
        "name": "COSMOS 2251 DEB",
        "group": "cosmos-2251-debris",
        "lat": -6.398945301016051,
        "lon": 1.706622284678986,
        "alt_km": 575.1249161982314,
        "timestamp": "2025-12-09T14:52:26.558465+00:00",
        "meta_object_name": "COSMOS 2251 DEB",
        "meta_object_id": "1993-036AJA",
        "meta_epoch": "2025-12-06T06:11:48.969024",
        "meta_mean_motion": 15.03269957,
        "meta_eccentricity": 0.00683754,
        "meta_inclination": 73.9314,
        "meta_ra_of_asc_node": 186.7627,
        "meta_arg_of_pericenter": 85.1943,
        "meta_mean_anomaly": 275.7048,
        "meta_ephemeris_type": 0,
        "meta_classification_type": "U",
        "meta_norad_cat_id": 35071,
        "meta_element_set_no": 999,
        "meta_rev_at_epoch": 67439,
        "meta_bstar": 0.0011992827,
        "meta_mean_motion_dot": 0.00017109,
        "meta_mean_motion_ddot": 0,
        "tle_line1": "1 35071U 93036AJA 25340.25820566  .00017109  00000+0  11993-2 0  9997",
        "tle_line2": "2 35071  73.9314 186.7627 0068375  85.1943 275.7048 15.03269957674390"
      },
      "geometry": {
        "type": "Point",
        "coordinates": [
          1.706622284678986,
          -6.398945301016051
        ]
      }
    },
    {
      "type": "Feature",
      "properties": {
        "norad_id": 35073,
        "name": "COSMOS 2251 DEB",
        "group": "cosmos-2251-debris",
        "lat": -32.31411592549709,
        "lon": -33.5165820321773,
        "alt_km": 574.1065187536742,
        "timestamp": "2025-12-09T14:52:26.558476+00:00",
        "meta_object_name": "COSMOS 2251 DEB",
        "meta_object_id": "1993-036AJC",
        "meta_epoch": "2025-12-06T06:59:58.933248",
        "meta_mean_motion": 14.99991639,
        "meta_eccentricity": 0.00102924,
        "meta_inclination": 74.0009,
        "meta_ra_of_asc_node": 343.7168,
        "meta_arg_of_pericenter": 84.8418,
        "meta_mean_anomaly": 275.3943,
        "meta_ephemeris_type": 0,
        "meta_classification_type": "U",
        "meta_norad_cat_id": 35073,
        "meta_element_set_no": 999,
        "meta_rev_at_epoch": 67382,
        "meta_bstar": 0.0044204403,
        "meta_mean_motion_dot": 0.00055435,
        "meta_mean_motion_ddot": 0,
        "tle_line1": "1 35073U 93036AJC 25340.29165432  .00055435  00000+0  44204-2 0  9992",
        "tle_line2": "2 35073  74.0009 343.7168 0010292  84.8418 275.3943 14.99991639673828"
      },
      "geometry": {
        "type": "Point",
        "coordinates": [
          -33.5165820321773,
          -32.31411592549709
        ]
      }
    },
    {
      "type": "Feature",
      "properties": {
        "norad_id": 35284,
        "name": "COSMOS 2251 DEB",
        "group": "cosmos-2251-debris",
        "lat": 29.531310152049414,
        "lon": -80.50674042318283,
        "alt_km": 753.7073967336801,
        "timestamp": "2025-12-09T14:52:26.558486+00:00",
        "meta_object_name": "COSMOS 2251 DEB",
        "meta_object_id": "1993-036AJN",
        "meta_epoch": "2025-12-07T06:41:11.898816",
        "meta_mean_motion": 14.38308297,
        "meta_eccentricity": 0.00165721,
        "meta_inclination": 74.049,
        "meta_ra_of_asc_node": 274.4779,
        "meta_arg_of_pericenter": 351.9978,
        "meta_mean_anomaly": 161.4544,
        "meta_ephemeris_type": 0,
        "meta_classification_type": "U",
        "meta_norad_cat_id": 35284,
        "meta_element_set_no": 999,
        "meta_rev_at_epoch": 65447,
        "meta_bstar": 0.00033658929,
        "meta_mean_motion_dot": 1e-05,
        "meta_mean_motion_ddot": 0,
        "tle_line1": "1 35284U 93036AJN 25341.27860994  .00001000  00000+0  33659-3 0  9992",
        "tle_line2": "2 35284  74.0490 274.4779 0016572 351.9978 161.4544 14.38308297654477"
      },
      "geometry": {
        "type": "Point",
        "coordinates": [
          -80.50674042318283,
          29.531310152049414
        ]
      }
    },
    {
      "type": "Feature",
      "properties": {
        "norad_id": 35287,
        "name": "COSMOS 2251 DEB",
        "group": "cosmos-2251-debris",
        "lat": -45.79499674704066,
        "lon": 118.99213309804753,
        "alt_km": 787.7828386880783,
        "timestamp": "2025-12-09T14:52:26.558496+00:00",
        "meta_object_name": "COSMOS 2251 DEB",
        "meta_object_id": "1993-036AJR",
        "meta_epoch": "2025-12-08T06:45:42.279840",
        "meta_mean_motion": 14.36370501,
        "meta_eccentricity": 0.00173563,
        "meta_inclination": 74.0304,
        "meta_ra_of_asc_node": 284.3273,
        "meta_arg_of_pericenter": 22.2122,
        "meta_mean_anomaly": 130.0196,
        "meta_ephemeris_type": 0,
        "meta_classification_type": "U",
        "meta_norad_cat_id": 35287,
        "meta_element_set_no": 999,
        "meta_rev_at_epoch": 86828,
        "meta_bstar": 0.00029165774,
        "meta_mean_motion_dot": 8.29e-06,
        "meta_mean_motion_ddot": 0,
        "tle_line1": "1 35287U 93036AJR 25342.28173935  .00000829  00000+0  29166-3 0  9995",
        "tle_line2": "2 35287  74.0304 284.3273 0017356  22.2122 130.0196 14.36370501868289"
      },
      "geometry": {
        "type": "Point",
        "coordinates": [
          118.99213309804753,
          -45.79499674704066
        ]
      }
    },
    {
      "type": "Feature",
      "properties": {
        "norad_id": 35288,
        "name": "COSMOS 2251 DEB",
        "group": "cosmos-2251-debris",
        "lat": 49.88051962439168,
        "lon": 41.18697681569958,
        "alt_km": 696.6775898899332,
        "timestamp": "2025-12-09T14:52:26.558506+00:00",
        "meta_object_name": "COSMOS 2251 DEB",
        "meta_object_id": "1993-036AJS",
        "meta_epoch": "2025-12-08T18:58:17.923872",
        "meta_mean_motion": 14.65390759,
        "meta_eccentricity": 0.00395539,
        "meta_inclination": 73.9507,
        "meta_ra_of_asc_node": 22.8152,
        "meta_arg_of_pericenter": 256.8588,
        "meta_mean_anomaly": 102.8165,
        "meta_ephemeris_type": 0,
        "meta_classification_type": "U",
        "meta_norad_cat_id": 35288,
        "meta_element_set_no": 999,
        "meta_rev_at_epoch": 87820,
        "meta_bstar": 0.0016009913,
        "meta_mean_motion_dot": 8.734e-05,
        "meta_mean_motion_ddot": 0,
        "tle_line1": "1 35288U 93036AJS 25342.79048523  .00008734  00000+0  16010-2 0  9992",
        "tle_line2": "2 35288  73.9507  22.8152 0039553 256.8588 102.8165 14.65390759878203"
      },
      "geometry": {
        "type": "Point",
        "coordinates": [
          41.18697681569958,
          49.88051962439168
        ]
      }
    },
    {
      "type": "Feature",
      "properties": {
        "norad_id": 35290,
        "name": "COSMOS 2251 DEB",
        "group": "cosmos-2251-debris",
        "lat": 14.548671172834522,
        "lon": -118.67409462329728,
        "alt_km": 627.6409976064415,
        "timestamp": "2025-12-09T14:52:26.558517+00:00",
        "meta_object_name": "COSMOS 2251 DEB",
        "meta_object_id": "1993-036AJU",
        "meta_epoch": "2025-12-08T12:10:44.215680",
        "meta_mean_motion": 14.8018119,
        "meta_eccentricity": 0.00027465,
        "meta_inclination": 74.0052,
        "meta_ra_of_asc_node": 67.7898,
        "meta_arg_of_pericenter": 203.6265,
        "meta_mean_anomaly": 156.4785,
        "meta_ephemeris_type": 0,
        "meta_classification_type": "U",
        "meta_norad_cat_id": 35290,
        "meta_element_set_no": 999,
        "meta_rev_at_epoch": 87895,
        "meta_bstar": 0.002766883,
        "meta_mean_motion_dot": 0.00021059,
        "meta_mean_motion_ddot": 0,
        "tle_line1": "1 35290U 93036AJU 25342.50745620  .00021059  00000+0  27669-2 0  9993",
        "tle_line2": "2 35290  74.0052  67.7898 0002746 203.6265 156.4785 14.80181190878953"
      },
      "geometry": {
        "type": "Point",
        "coordinates": [
          -118.67409462329728,
          14.548671172834522
        ]
      }
    }
  ]
}